{
  "type": "FeatureCollection",
  "features": [
    {
      "type": "Feature",
      "properties": {
        "id": "K3578010",
        "nama": "Gubeng",
        "kepadatan": 12500.5,
        "blind_spot_pct": 35.2,
        "jarak_first_mile": 650.0,
        "frekuensi": 4.5
      },
      "geometry": {
        "type": "Polygon",
        "coordinates": [
          [
            [112.75, -7.27],
            [112.76, -7.27],
            [112.76, -7.28],
            [112.75, -7.28],
            [112.75, -7.27]
          ]
        ]
      }
    },
    {
      "type": "Feature",
      "properties": {
        "id": "K3578020",
        "nama": "Wonokromo",
        "kepadatan": 15200.0,
        "blind_spot_pct": 12.5,
        "jarak_first_mile": 320.0,
        "frekuensi": 8.0
      },
      "geometry": {
        "type": "Polygon",
        "coordinates": [
          [
            [112.73, -7.29],
            [112.74, -7.29],
            [112.74, -7.30],
            [112.73, -7.30],
            [112.73, -7.29]
          ]
        ]
      }
    },
    {
      "type": "Feature",
      "properties": {
        "id": "K3578030",
        "nama": "Tegalsari",
        "kepadatan": 11000.0,
        "blind_spot_pct": 18.0,
        "jarak_first_mile": 400.0,
        "frekuensi": 6.5
      },
      "geometry": {
        "type": "Polygon",
        "coordinates": [
          [
            [112.74, -7.26],
            [112.75, -7.26],
            [112.75, -7.27],
            [112.74, -7.27],
            [112.74, -7.26]
          ]
        ]
      }
    },
    {
      "type": "Feature",
      "properties": {
        "id": "K3578040",
        "nama": "Kenjeran",
        "kepadatan": 14500.0,
        "blind_spot_pct": 75.0,
        "jarak_first_mile": 1200.0,
        "frekuensi": 1.5
      },
      "geometry": {
        "type": "Polygon",
        "coordinates": [
          [
            [112.77, -7.23],
            [112.79, -7.23],
            [112.79, -7.25],
            [112.77, -7.25],
            [112.77, -7.23]
          ]
        ]
      }
    }
  ]
}
